IRIDIUM 135             
1 43070U 17083A   26200.31485146 -.00000007  00000+0 -96099-5 0  9991
2 43070  86.3984 308.5864 0002110  94.8546 265.2891 14.34217643448754
IRIDIUM 138             
1 43071U 17083B   26200.27045209  .00000199  00000+0  64173-4 0  9996
2 43071  86.4001 308.3048 0002033  94.1505 265.9923 14.34217248448732
IRIDIUM 116             
1 43072U 17083C   26200.30850924  .00000125  00000+0  37564-4 0  9992
2 43072  86.3988 308.5742 0002507  99.3213 260.8267 14.34216878448775
IRIDIUM 130             
1 43073U 17083D   26200.27679684  .00000141  00000+0  43186-4 0  9996
2 43073  86.3994 308.8661 0002342 100.1701 259.9759 14.34218899448710
IRIDIUM 151             
1 43074U 17083E   26200.25142611  .00000105  00000+0  30387-4 0  9999
2 43074  86.3989 308.6569 0002278  95.2809 264.8646 14.34217805448739
IRIDIUM 134             
1 43075U 17083F   26200.28948126  .00000039  00000+0  67844-5 0  9993
2 43075  86.3989 308.6493 0002257  96.6032 263.5420 14.34217878448709
IRIDIUM 137             
1 43076U 17083G   26200.30216734 -.00000005  00000+0 -89902-5 0  9994
2 43076  86.3988 308.7376 0002557  91.6402 268.5087 14.34217635448771
IRIDIUM 141             
1 43077U 17083H   26200.22605548  .00000136  00000+0  41461-4 0  9991
2 43077  86.3987 308.5982 0002139  94.3397 265.8043 14.34217368448765
IRIDIUM 153             
1 43078U 17083J   26200.17823362  .00000012  00000+0 -27487-5 0  9999
2 43078  86.3956 277.0965 0002027  96.0914 264.0513 14.34217592449867
IRIDIUM 131             
1 43079U 17083K   26200.28313879 -.00000037  00000+0 -20156-4 0  9992
2 43079  86.3987 308.7624 0002095  93.6195 266.5240 14.34217399448706
IRIDIUM 144             
1 43249U 18030A   26200.18457654  .00000083  00000+0  22578-4 0  9992
2 43249  86.3956 277.0224 0002364  96.0957 264.0508 14.34217270434722
IRIDIUM 149             
1 43250U 18030B   26200.19091924  .00000000  00000+0 -70152-5 0  9991
2 43250  86.3952 276.9860 0002133  93.4057 266.7383 14.34217546434748
IRIDIUM 157             
1 43251U 18030C   26200.20994738  .00000110  00000+0  32249-4 0  9994
2 43251  86.3955 277.0322 0002294  95.0642 265.0816 14.34218770434724
IRIDIUM 140             
1 43252U 18030D   26200.22897607  .00000135  00000+0  41294-4 0  9991
2 43252  86.3955 277.0369 0002259  95.9124 264.2329 14.34218632434784
IRIDIUM 145             
1 43253U 18030E   26200.21629039  .00000039  00000+0  69493-5 0  9998
2 43253  86.3954 277.0143 0002569  98.1421 262.0067 14.34217381434711
IRIDIUM 146             
1 43254U 18030F   26200.19726216  .00000020  00000+0 -58154-7 0  9996
2 43254  86.3955 277.0342 0002261  96.2244 263.9210 14.34217437434728
IRIDIUM 148             
1 43255U 18030G   26200.23531823  .00000125  00000+0  37536-4 0  9993
2 43255  86.3956 277.0619 0002351  93.1351 267.0113 14.34218913434763
IRIDIUM 142             
1 43256U 18030H   26200.20360457  .00000016  00000+0 -15290-5 0  9998
2 43256  86.3951 276.9628 0002343  95.7308 264.4155 14.34217704434728
IRIDIUM 150             
1 43257U 18030J   26200.24165990  .00000050  00000+0  10803-4 0  9999
2 43257  86.3956 277.0649 0002317  96.1299 264.0161 14.34217282434751
IRIDIUM 143             
1 43258U 18030K   26200.22263267  .00000094  00000+0  26615-4 0  9990
2 43258  86.3958 277.1663 0002382  96.9067 263.2400 14.34218245434683
IRIDIUM 161             
1 43478U 18047C   26200.19984493  .00000149  00000+0  38359-4 0  9998
2 43478  86.4457  75.0827 0002181  80.6985 279.4463 14.43276886429750
IRIDIUM 152             
1 43479U 18047D   26200.19535001 -.00000087  00000+0 -38100-4 0  9993
2 43479  86.3930  74.9455 0002013  83.9194 276.2231 14.34217504427076
IRIDIUM 147             
1 43480U 18047E   26200.20169278  .00000077  00000+0  20350-4 0  9991
2 43480  86.3934  74.9489 0002299  87.6187 272.5272 14.34217838427072
IRIDIUM 110             
1 43481U 18047F   26200.13826453  .00000121  00000+0  36082-4 0  9998
2 43481  86.3937  75.0681 0002067  77.4386 282.7041 14.34216746427055
IRIDIUM 162             
1 43482U 18047G   26200.12421176  .00000158  00000+0  40961-4 0  9992
2 43482  86.4456  75.0048 0002189  86.6560 273.4892 14.43279647429738
IRIDIUM 160             
1 43569U 18061A   26200.29340779  .00000098  00000+0  27879-4 0  9997
2 43569  86.3939  43.3669 0002214  86.9901 273.1548 14.34217801417979
IRIDIUM 166             
1 43570U 18061B   26200.10947324  .00000012  00000+0 -26177-5 0  9996
2 43570  86.3937  43.3939 0002282  89.5787 270.5670 14.34217663417978
IRIDIUM 158             
1 43571U 18061C   26200.07776035  .00000025  00000+0  18550-5 0  9991
2 43571  86.3938  43.4170 0002121  89.0071 271.1368 14.34217267417938
IRIDIUM 165             
1 43572U 18061D   26200.10313082  .00000083  00000+0  22738-4 0  9991
2 43572  86.3939  43.4534 0002280  91.5642 268.5815 14.34217994417969
IRIDIUM 155             
1 43573U 18061E   26200.27438027  .00000037  00000+0  61904-5 0  9995
2 43573  86.3936  43.2491 0002146  90.6358 269.5084 14.34217730417958
